[{"OBJECT_NAME":"STARLINK-30073","OBJECT_ID":"2023-079T","EPOCH":"2026-03-09T22:00:01.999584","MEAN_MOTION":15.27575359,"ECCENTRICITY":0.00020534,"INCLINATION":43.0005,"RA_OF_ASC_NODE":291.0924,"ARG_OF_PERICENTER":288.9142,"MEAN_ANOMALY":240.4544,"EPHEMERIS_TYPE":0,"CLASSIFICATION_TYPE":"U","NORAD_CAT_ID":56840,"ELEMENT_SET_NO":999,"REV_AT_EPOCH":574,"BSTAR":0.00066101027,"MEAN_MOTION_DOT":0.0001797,"MEAN_MOTION_DDOT":0},{"OBJECT_NAME":"STARLINK-36515","OBJECT_ID":"2026-005AC","EPOCH":"2026-03-08T13:42:09.743040","MEAN_MOTION":15.2759908,"ECCENTRICITY":0.00016148,"INCLINATION":42.9999,"RA_OF_ASC_NODE":244.4472,"ARG_OF_PERICENTER":259.2943,"MEAN_ANOMALY":100.7727,"EPHEMERIS_TYPE":0,"CLASSIFICATION_TYPE":"U","NORAD_CAT_ID":67430,"ELEMENT_SET_NO":999,"REV_AT_EPOCH":851,"BSTAR":0.0014270247,"MEAN_MOTION_DOT":0.00039239,"MEAN_MOTION_DDOT":0}]
